[{"OBJECT_NAME":"STARLINK-2740","OBJECT_ID":"2021-044BE","EPOCH":"2026-03-09T09:28:17.791104","MEAN_MOTION":15.30199466,"ECCENTRICITY":0.00012785,"INCLINATION":53.1612,"RA_OF_ASC_NODE":76.6888,"ARG_OF_PERICENTER":99.2058,"MEAN_ANOMALY":260.9087,"EPHEMERIS_TYPE":0,"CLASSIFICATION_TYPE":"U","NORAD_CAT_ID":48690,"ELEMENT_SET_NO":999,"REV_AT_EPOCH":26431,"BSTAR":3.7044851e-5,"MEAN_MOTION_DOT":7.38e-6,"MEAN_MOTION_DDOT":0},{"OBJECT_NAME":"TEVEL2-3","OBJECT_ID":"2025-052J","EPOCH":"2026-03-09T15:29:22.754400","MEAN_MOTION":15.30377031,"ECCENTRICITY":0.0004761,"INCLINATION":97.3994,"RA_OF_ASC_NODE":324.7775,"ARG_OF_PERICENTER":105.7353,"MEAN_ANOMALY":254.4413,"EPHEMERIS_TYPE":0,"CLASSIFICATION_TYPE":"U","NORAD_CAT_ID":63218,"ELEMENT_SET_NO":999,"REV_AT_EPOCH":5485,"BSTAR":0.00069446,"MEAN_MOTION_DOT":0.00020365,"MEAN_MOTION_DDOT":0}]
